{
  "type": "FeatureCollection",
  "features": [
    {
      "type": "Feature",
      "properties": {
        "norad_id": 34079,
        "name": "IRIDIUM 33 DEB",
        "group": "iridium-33-debris",
        "lat": -51.518473832140515,
        "lon": 1.4166066678065636,
        "alt_km": 622.1563609479281,
        "timestamp": "2025-12-18T14:52:08.409546+00:00",
        "meta_object_name": "IRIDIUM 33 DEB",
        "meta_object_id": "1997-051CN",
        "meta_epoch": "2025-12-18T02:26:05.990208",
        "meta_mean_motion": 14.83662586,
        "meta_eccentricity": 0.00049111,
        "meta_inclination": 86.377,
        "meta_ra_of_asc_node": 6.224,
        "meta_arg_of_pericenter": 349.8127,
        "meta_mean_anomaly": 73.2814,
        "meta_ephemeris_type": 0,
        "meta_classification_type": "U",
        "meta_norad_cat_id": 34079,
        "meta_element_set_no": 999,
        "meta_rev_at_epoch": 89057,
        "meta_bstar": 0.0012172438,
        "meta_mean_motion_dot": 0.0001008,
        "meta_mean_motion_ddot": 0,
        "tle_line1": "1 34079U 97051CN  25352.10145822  .00010080  00000+0  12172-2 0  9998",
        "tle_line2": "2 34079  86.3770   6.2240 0004911 349.8127  73.2814 14.83662586890572"
      },
      "geometry": {
        "type": "Point",
        "coordinates": [
          1.4166066678065636,
          -51.518473832140515
        ]
      }
    },
    {
      "type": "Feature",
      "properties": {
        "norad_id": 34088,
        "name": "IRIDIUM 33 DEB",
        "group": "iridium-33-debris",
        "lat": -27.276924861072605,
        "lon": -150.10939033993793,
        "alt_km": 595.9071851080816,
        "timestamp": "2025-12-18T14:52:08.409557+00:00",
        "meta_object_name": "IRIDIUM 33 DEB",
        "meta_object_id": "1997-051CX",
        "meta_epoch": "2025-12-18T02:54:39.334176",
        "meta_mean_motion": 14.91624092,
        "meta_eccentricity": 0.00062353,
        "meta_inclination": 86.3846,
        "meta_ra_of_asc_node": 28.2513,
        "meta_arg_of_pericenter": 159.1232,
        "meta_mean_anomaly": 254.2652,
        "meta_ephemeris_type": 0,
        "meta_classification_type": "U",
        "meta_norad_cat_id": 34088,
        "meta_element_set_no": 999,
        "meta_rev_at_epoch": 88822,
        "meta_bstar": 0.0018792437,
        "meta_mean_motion_dot": 0.00018926,
        "meta_mean_motion_ddot": 0,
        "tle_line1": "1 34088U 97051CX  25352.12128859  .00018926  00000+0  18792-2 0  9992",
        "tle_line2": "2 34088  86.3846  28.2513 0006235 159.1232 254.2652 14.91624092888222"
      },
      "geometry": {
        "type": "Point",
        "coordinates": [
          -150.10939033993793,
          -27.276924861072605
        ]
      }
    },
    {
      "type": "Feature",
      "properties": {
        "norad_id": 34091,
        "name": "IRIDIUM 33 DEB",
        "group": "iridium-33-debris",
        "lat": -12.235554386833357,
        "lon": -115.06437701051016,
        "alt_km": 622.5938725173664,
        "timestamp": "2025-12-18T14:52:08.409567+00:00",
        "meta_object_name": "IRIDIUM 33 DEB",
        "meta_object_id": "1997-051DA",
        "meta_epoch": "2025-12-18T04:16:47.373312",
        "meta_mean_motion": 14.8221607,
        "meta_eccentricity": 0.00338054,
        "meta_inclination": 86.3422,
        "meta_ra_of_asc_node": 64.3429,
        "meta_arg_of_pericenter": 273.6022,
        "meta_mean_anomaly": 86.1335,
        "meta_ephemeris_type": 0,
        "meta_classification_type": "U",
        "meta_norad_cat_id": 34091,
        "meta_element_set_no": 999,
        "meta_rev_at_epoch": 87947,
        "meta_bstar": 0.0037025527,
        "meta_mean_motion_dot": 0.00029931,
        "meta_mean_motion_ddot": 0,
        "tle_line1": "1 34091U 97051DA  25352.17832608  .00029931  00000+0  37026-2 0  9994",
        "tle_line2": "2 34091  86.3422  64.3429 0033805 273.6022  86.1335 14.82216070879475"
      },
      "geometry": {
        "type": "Point",
        "coordinates": [
          -115.06437701051016,
          -12.235554386833357
        ]
      }
    },
    {
      "type": "Feature",
      "properties": {
        "norad_id": 34097,
        "name": "IRIDIUM 33 DEB",
        "group": "iridium-33-debris",
        "lat": 17.796435410858155,
        "lon": 177.5905833982731,
        "alt_km": 834.7994020750311,
        "timestamp": "2025-12-18T14:52:08.409578+00:00",
        "meta_object_name": "IRIDIUM 33 DEB",
        "meta_object_id": "1997-051DG",
        "meta_epoch": "2025-12-18T00:43:30.559584",
        "meta_mean_motion": 14.34818977,
        "meta_eccentricity": 0.00820082,
        "meta_inclination": 86.2002,
        "meta_ra_of_asc_node": 359.073,
        "meta_arg_of_pericenter": 344.9204,
        "meta_mean_anomaly": 14.9547,
        "meta_ephemeris_type": 0,
        "meta_classification_type": "U",
        "meta_norad_cat_id": 34097,
        "meta_element_set_no": 999,
        "meta_rev_at_epoch": 87195,
        "meta_bstar": 0.0011689476,
        "meta_mean_motion_dot": 3.462e-05,
        "meta_mean_motion_ddot": 0,
        "tle_line1": "1 34097U 97051DG  25352.03021481  .00003462  00000+0  11689-2 0  9992",
        "tle_line2": "2 34097  86.2002 359.0730 0082008 344.9204  14.9547 14.34818977871956"
      },
      "geometry": {
        "type": "Point",
        "coordinates": [
          177.5905833982731,
          17.796435410858155
        ]
      }
    },
    {
      "type": "Feature",
      "properties": {
        "norad_id": 34145,
        "name": "IRIDIUM 33 DEB",
        "group": "iridium-33-debris",
        "lat": -50.215960013549825,
        "lon": 154.47215784389266,
        "alt_km": 793.8468498810062,
        "timestamp": "2025-12-18T14:52:08.409588+00:00",
        "meta_object_name": "IRIDIUM 33 DEB",
        "meta_object_id": "1997-051DY",
        "meta_epoch": "2025-12-17T22:49:23.776032",
        "meta_mean_motion": 14.42325232,
        "meta_eccentricity": 0.0055747,
        "meta_inclination": 86.2112,
        "meta_ra_of_asc_node": 330.2054,
        "meta_arg_of_pericenter": 77.2912,
        "meta_mean_anomaly": 283.4511,
        "meta_ephemeris_type": 0,
        "meta_classification_type": "U",
        "meta_norad_cat_id": 34145,
        "meta_element_set_no": 999,
        "meta_rev_at_epoch": 87713,
        "meta_bstar": 0.00089218085,
        "meta_mean_motion_dot": 3.021e-05,
        "meta_mean_motion_ddot": 0,
        "tle_line1": "1 34145U 97051DY  25351.95096963  .00003021  00000+0  89218-3 0  9998",
        "tle_line2": "2 34145  86.2112 330.2054 0055747  77.2912 283.4511 14.42325232877130"
      },
      "geometry": {
        "type": "Point",
        "coordinates": [
          154.47215784389266,
          -50.215960013549825
        ]
      }
    },
    {
      "type": "Feature",
      "properties": {
        "norad_id": 34146,
        "name": "IRIDIUM 33 DEB",
        "group": "iridium-33-debris",
        "lat": 10.437520136646603,
        "lon": -12.110734796920926,
        "alt_km": 748.4022041442331,
        "timestamp": "2025-12-18T14:52:08.409598+00:00",
        "meta_object_name": "IRIDIUM 33 DEB",
        "meta_object_id": "1997-051DZ",
        "meta_epoch": "2025-12-17T18:04:21.043776",
        "meta_mean_motion": 14.49082256,
        "meta_eccentricity": 0.00259845,
        "meta_inclination": 86.2829,
        "meta_ra_of_asc_node": 347.5858,
        "meta_arg_of_pericenter": 204.0117,
        "meta_mean_anomaly": 329.0213,
        "meta_ephemeris_type": 0,
        "meta_classification_type": "U",
        "meta_norad_cat_id": 34146,
        "meta_element_set_no": 999,
        "meta_rev_at_epoch": 88179,
        "meta_bstar": 0.00069560917,
        "meta_mean_motion_dot": 2.672e-05,
        "meta_mean_motion_ddot": 0,
        "tle_line1": "1 34146U 97051DZ  25351.75302134  .00002672  00000+0  69561-3 0  9997",
        "tle_line2": "2 34146  86.2829 347.5858 0025984 204.0117 329.0213 14.49082256881792"
      },
      "geometry": {
        "type": "Point",
        "coordinates": [
          -12.110734796920926,
          10.437520136646603
        ]
      }
    },
    {
      "type": "Feature",
      "properties": {
        "norad_id": 34159,
        "name": "IRIDIUM 33 DEB",
        "group": "iridium-33-debris",
        "lat": -41.75538391942012,
        "lon": -130.99897448973437,
        "alt_km": 757.0613852969182,
        "timestamp": "2025-12-18T14:52:08.409609+00:00",
        "meta_object_name": "IRIDIUM 33 DEB",
        "meta_object_id": "1997-051EN",
        "meta_epoch": "2025-12-18T03:49:19.458336",
        "meta_mean_motion": 14.38506978,
        "meta_eccentricity": 0.00259235,
        "meta_inclination": 86.35,
        "meta_ra_of_asc_node": 45.9306,
        "meta_arg_of_pericenter": 268.5859,
        "meta_mean_anomaly": 91.237,
        "meta_ephemeris_type": 0,
        "meta_classification_type": "U",
        "meta_norad_cat_id": 34159,
        "meta_element_set_no": 999,
        "meta_rev_at_epoch": 88037,
        "meta_bstar": 0.00031010873,
        "meta_mean_motion_dot": 9.7e-06,
        "meta_mean_motion_ddot": 0,
        "tle_line1": "1 34159U 97051EN  25352.15925299  .00000970  00000+0  31011-3 0  9997",
        "tle_line2": "2 34159  86.3500  45.9306 0025923 268.5859  91.2370 14.38506978880376"
      },
      "geometry": {
        "type": "Point",
        "coordinates": [
          -130.99897448973437,
          -41.75538391942012
        ]
      }
    }
  ]
}